NORAD_CAT_ID,OBJECT_NAME,OBJECT_TYPE,EPOCH,MEAN_MOTION,ECCENTRICITY,INCLINATION,RA_OF_ASC_NODE,ARG_OF_PERICENTER,MEAN_ANOMALY,BSTAR,MEAN_MOTION_DOT,MEAN_MOTION_DDOT,TLE_LINE0,TLE_LINE1,TLE_LINE2,SEMIMAJOR_AXIS,PERIOD,APOGEE,PERIGEE,DECAYED
51867.0,STARLINK-3590,PAYLOAD,2022-03-18 14:00:01,15.73265585,0.000124,53.2188,70.032,60.2266,265.0313,-0.000754,-0.00105416,0.0,0 STARLINK-3590,1 51867U 22022R   22077.58334491 -.00105416  00000-0 -75400-3 0  9998,2 51867  53.2188  70.0320 0001240  60.2266 265.0313 15.73265585  3007,6727.708000000001,91.529,350.407,348.73900000000015,0.0
51867.0,STARLINK-3590,PAYLOAD,2022-03-18 22:00:00,15.731889,0.000108,53.2192,68.3808,67.3694,346.8511,0.00031592,0.00043928,0.0,0 STARLINK-3590,1 51867U 22022R   22077.91667824  .00043928  00000-0  31592-3 0  9995,2 51867  53.2192  68.3808 0001080  67.3694 346.8511 15.73188900  3629,6727.927,91.534,350.51800000000014,349.065,0.0
51867.0,STARLINK-3590,PAYLOAD,2022-03-19 02:00:01,15.73244206,0.0001053,53.2194,67.5569,64.3429,214.3872,-0.00067018,-0.00093807,0.0,0 STARLINK-3590,1 51867U 22022R   22078.08335648 -.00093807  00000-0 -67018-3 0  9995,2 51867  53.2194  67.5569 0001053  64.3429 214.3872 15.73244206  3653,6727.769,91.531,350.343,348.926,0.0
51867.0,STARLINK-3590,PAYLOAD,2022-03-19 14:00:01,15.73207265,0.0001034,53.2172,65.0738,77.5137,154.3759,-4.3263e-05,-6.688e-05,0.0,0 STARLINK-3590,1 51867U 22022R   22078.58334491 -.00006688  00000-0 -43263-4 0  9993,2 51867  53.2172  65.0738 0001034  77.5137 154.3759 15.73207265  3731,6727.874,91.533,350.435,349.0440000000001,0.0
51867.0,STARLINK-3590,PAYLOAD,2022-03-19 22:00:01,15.73229622,0.0001014,53.2186,63.4307,70.408,250.705,-0.00020777,-0.00029712,0.0,0 STARLINK-3590,1 51867U 22022R   22078.91668981 -.00029712  00000-0 -20777-3 0  9991,2 51867  53.2186  63.4307 0001014  70.4080 250.7050 15.73229622  3788,6727.811,91.531,350.358,348.994,0.0
51867.0,STARLINK-3590,PAYLOAD,2022-03-20 12:00:00,15.7325262,0.0001153,53.2194,60.5479,58.2151,328.4855,-0.00038792,-0.00054829,0.0,0 STARLINK-3590,1 51867U 22022R   22079.50001157 -.00054829  00000-0 -38792-3 0  9996,2 51867  53.2194  60.5479 0001153  58.2151 328.4855 15.73252620  3872,6727.745,91.53,350.386,348.834,0.0
51867.0,STARLINK-3590,PAYLOAD,2022-03-20 14:00:01,15.73263011,0.0001109,53.2197,60.1349,62.3209,76.6195,-0.00066009,-0.00092493,0.0,0 STARLINK-3590,1 51867U 22022R   22079.58334491 -.00092493  00000-0 -66009-3 0  9995,2 51867  53.2197  60.1349 0001109  62.3209  76.6195 15.73263011  3323,6727.715999999999,91.53,350.327,348.834,0.0
51867.0,STARLINK-3590,PAYLOAD,2022-03-20 22:00:01,15.73228575,0.0001102,53.2201,58.484,74.6078,153.3609,-0.00021137,-0.00030213,0.0,0 STARLINK-3590,1 51867U 22022R   22079.91668981 -.00030213  00000-0 -21137-3 0  9991,2 51867  53.2201  58.4840 0001102  74.6078 153.3609 15.73228575  3383,6727.814,91.532,350.42,348.93699999999984,0.0
51867.0,STARLINK-3590,PAYLOAD,2022-03-21 06:00:00,15.73169097,0.0001379,53.2202,56.8368,65.4724,251.3835,0.00034205,0.00047593,0.0,0 STARLINK-3590,1 51867U 22022R   22080.25001157  .00047593  00000-0  34205-3 0  9993,2 51867  53.2202  56.8368 0001379  65.4724 251.3835 15.73169097  3993,6727.983,91.535,350.776,348.92,0.0
51867.0,STARLINK-3590,PAYLOAD,2022-03-21 14:00:01,15.73254824,0.0001118,53.2194,55.1867,65.0185,340.7376,-0.0009055,-0.00126105,0.0,0 STARLINK-3590,1 51867U 22022R   22080.58334491 -.00126105  00000-0 -90550-3 0  9993,2 51867  53.2194  55.1867 0001118  65.0185 340.7376 15.73254824  3487,6727.739000000001,91.53,350.356,348.852,0.0
51867.0,STARLINK-3590,PAYLOAD,2022-03-21 22:00:00,15.73136748,8.44e-05,53.219,53.5363,75.8839,58.815,0.00020735,0.000285,0.0,0 STARLINK-3590,1 51867U 22022R   22080.91667824  .00028500  00000-0  20735-3 0  9995,2 51867  53.2190  53.5363 0000844  75.8839  58.8150 15.73136748  4095,6728.076,91.537,350.5080000000001,349.37300000000016,0.0
51867.0,STARLINK-3590,PAYLOAD,2022-03-22 14:00:01,15.73204162,8.13e-05,53.2182,50.2388,61.3552,251.0907,9.9542e-05,0.00013375,0.0,0 STARLINK-3590,1 51867U 22022R   22081.58334491  .00013375  00000-0  99542-4 0  9997,2 51867  53.2182  50.2388 0000813  61.3552 251.0907 15.73204162  3648,6727.8830000000025,91.533,350.295,349.201,0.0
51867.0,STARLINK-3590,PAYLOAD,2022-03-22 20:00:01,15.73198344,8.209999999999999e-05,53.2184,49.0005,71.9724,217.1871,0.00067667,0.00095423,0.0,0 STARLINK-3590,1 51867U 22022R   22081.83334491  .00095423  00000-0  67667-3 0  9991,2 51867  53.2184  49.0005 0000821  71.9724 217.1871 15.73198344  4243,6727.9,91.533,350.31699999999995,349.213,0.0
51867.0,STARLINK-3590,PAYLOAD,2022-03-22 22:00:01,15.73234399,9.18e-05,53.2187,48.5884,72.8007,328.6526,0.00034175,0.00047685,0.0,0 STARLINK-3590,1 51867U 22022R   22081.91668981  .00047685  00000-0  34175-3 0  9999,2 51867  53.2187  48.5884 0000918  72.8007 328.6526 15.73234399  3690,6727.797,91.531,350.28,349.0440000000001,0.0
51867.0,STARLINK-3590,PAYLOAD,2022-03-23 08:00:01,15.73212434,0.0001218,53.2186,46.5289,61.5019,181.1223,5.9846e-05,7.791e-05,0.0,0 STARLINK-3590,1 51867U 22022R   22082.33334491  .00007791  00000-0  59846-4 0  9999,2 51867  53.2186  46.5289 0001218  61.5019 181.1223 15.73212434  4321,6727.86,91.532,350.5440000000001,348.905,0.0
51867.0,STARLINK-3590,PAYLOAD,2022-03-23 14:00:01,15.73260746,0.0001185,53.2183,45.2903,71.9255,147.4186,-0.00090933,-0.00126661,0.0,0 STARLINK-3590,1 51867U 22022R   22082.58334491 -.00126661  00000-0 -90933-3 0  9997,2 51867  53.2183  45.2903 0001185  71.9255 147.4186 15.73260746  3711,6727.722,91.53,350.384,348.79,0.0
51867.0,STARLINK-3590,PAYLOAD,2022-03-23 22:00:00,15.7315851,0.0001097,53.2184,43.6403,82.025,226.2579,0.00041566,0.00058014,0.0,0 STARLINK-3590,1 51867U 22022R   22082.91667824  .00058014  00000-0  41566-3 0  9995,2 51867  53.2184  43.6403 0001097  82.0250 226.2579 15.73158510  4414,6728.013000000001,91.536,350.617,349.14,0.0
51867.0,STARLINK-3590,PAYLOAD,2022-03-24 14:00:01,15.73220043,0.0001178,53.2184,40.3422,76.3081,49.8053,-0.00025691,-0.00036549,0.0,0 STARLINK-3590,1 51867U 22022R   22083.58334491 -.00036549  00000-0 -25691-3 0  9992,2 51867  53.2184  40.3422 0001178  76.3081  49.8053 15.73220043  3693,6727.8380000000025,91.532,350.496,348.91,0.0
51867.0,STARLINK-3590,PAYLOAD,2022-03-24 22:00:00,15.73229831,0.0001279,53.2188,38.6921,86.4449,128.5882,2.3453e-05,2.677e-05,0.0,0 STARLINK-3590,1 51867U 22022R   22083.91667824  .00002677  00000-0  23453-4 0  9996,2 51867  53.2188  38.6921 0001279  86.4449 128.5882 15.73229831  3715,6727.81,91.531,350.536,348.815,0.0
51867.0,STARLINK-3590,PAYLOAD,2022-03-25 00:00:02,15.73264754,0.0001240999999999,53.2188,38.2802,81.2287,246.1015,-0.0005677,-0.0007976,0.0,0 STARLINK-3590,1 51867U 22022R   22084.00002315 -.00079760  00000-0 -56770-3 0  9991,2 51867  53.2188  38.2802 0001241  81.2287 246.1015 15.73264754  4585,6727.7109999999975,91.529,350.41,348.741,0.0
51867.0,STARLINK-3590,PAYLOAD,2022-03-25 12:00:00,15.73235633,0.0001230999999999,53.2182,35.8065,75.5181,205.161,-0.00059621,-0.00083593,0.0,0 STARLINK-3590,1 51867U 22022R   22084.50001157 -.00083593  00000-0 -59621-3 0  9996,2 51867  53.2182  35.8065 0001231  75.5181 205.1610 15.73235633  4660,6727.794,91.531,350.487,348.83,0.0
51867.0,STARLINK-3590,PAYLOAD,2022-03-25 14:00:01,15.73203757,0.0001212,53.2184,35.3936,81.1166,311.8079,-0.00023375,-0.000333,0.0,0 STARLINK-3590,1 51867U 22022R   22084.58334491 -.00033300  00000-0 -23375-3 0  9992,2 51867  53.2184  35.3936 0001212  81.1166 311.8079 15.73203757  3697,6727.884,91.533,350.565,348.934,0.0
51867.0,STARLINK-3590,PAYLOAD,2022-03-25 20:00:01,15.73175024,0.0001306,53.2184,34.1559,87.5967,282.0172,0.0005276,0.00074,0.0,0 STARLINK-3590,1 51867U 22022R   22084.83334491  .00074000  00000-0  52760-3 0  9990,2 51867  53.2184  34.1559 0001306  87.5967 282.0172 15.73175024  4710,6727.965999999999,91.535,350.71,348.95300000000015,0.0
51867.0,STARLINK-3590,PAYLOAD,2022-03-25 22:00:01,15.73215997,0.0001312,53.2186,33.7439,87.0253,34.8731,4.0315e-05,5.045e-05,0.0,0 STARLINK-3590,1 51867U 22022R   22084.91668981  .00005045  00000-0  40315-4 0  9990,2 51867  53.2186  33.7439 0001312  87.0253  34.8731 15.73215997  3744,6727.85,91.532,350.597,348.832,0.0
51867.0,STARLINK-3590,PAYLOAD,2022-03-26 06:00:00,15.73170716,0.0001184,53.2184,32.0964,73.895,136.9036,0.00049351,0.00069125,0.0,0 STARLINK-3590,1 51867U 22022R   22085.25001157  .00069125  00000-0  49351-3 0  9991,2 51867  53.2184  32.0964 0001184  73.8950 136.9036 15.73170716  4787,6727.979,91.535,350.64,349.047,0.0
51867.0,STARLINK-3590,PAYLOAD,2022-03-26 14:00:01,15.73223718,0.0001177,53.2185,30.4452,84.2839,215.4212,-0.00047691,-0.00067086,0.0,0 STARLINK-3590,1 51867U 22022R   22085.58334491 -.00067086  00000-0 -47691-3 0  9998,2 51867  53.2185  30.4452 0001177  84.2839 215.4212 15.73223718  4832,6727.828,91.532,350.4840000000001,348.901,0.0
51867.0,STARLINK-3590,PAYLOAD,2022-03-26 22:00:00,15.73191764,0.0001318,53.2189,28.7954,87.1979,301.4190000000001,0.00013896,0.00018919,0.0,0 STARLINK-3590,1 51867U 22022R   22085.91667824  .00018919  00000-0  13896-3 0  9993,2 51867  53.2189  28.7954 0001318  87.1979 301.4190 15.73191764  3708,6727.919,91.534,350.67,348.897,0.0
51867.0,STARLINK-3590,PAYLOAD,2022-03-27 06:00:00,15.73181937,0.0001181,53.2188,27.1478,75.7745,41.7857,0.00017709,0.00024286,0.0,0 STARLINK-3590,1 51867U 22022R   22086.25001157  .00024286  00000-0  17709-3 0  9993,2 51867  53.2188  27.1478 0001181  75.7745  41.7857 15.73181937  4934,6727.946999999999,91.534,350.606,349.017,0.0
51867.0,STARLINK-3590,PAYLOAD,2022-03-27 14:00:01,15.73198929,9.98e-05,53.2187,25.4965,85.8119,120.6768,0.00042476,0.00059411,0.0,0 STARLINK-3590,1 51867U 22022R   22086.58334491  .00059411  00000-0  42476-3 0  9996,2 51867  53.2187  25.4965 0000998  85.8119 120.6768 15.73198929  3708,6727.898,91.533,350.435,349.092,0.0
